0 COSMOS 1927
1 18940U 88016D   13283.16133932  .00000011  00000-0  17406-3 0  1434
2 18940 074.0060 327.6684 0007999 347.5068 112.9528 12.50850835168352
0 COSMOS 1927
1 18940U 88016D   13285.47266329  .00000025  00000-0  26442-3 0  1443
2 18940 074.0055 324.5874 0008040 344.1154 080.9096 12.50850816168645
0 COSMOS 1927
1 18940U 88016D   13287.48086626  .00000004  00000-0  13244-3 0  1450
2 18940 074.0050 321.9103 0008072 341.1824 123.8893 12.50851046168897
0 COSMOS 1927
1 18940U 88016D   13289.48949763 -.00000019  00000-0 -21027-4 0  1460
2 18940 074.0047 319.2325 0008122 338.2477 168.8002 12.50851297169144
0 COSMOS 1927
1 18940U 88016D   13291.49465189 -.00000021  00000-0 -32528-4 0  1471
2 18940 074.0047 316.5591 0008145 335.3833 197.9908 12.50851445169398
0 COSMOS 1927
1 18940U 88016D   13293.79995527 -.00000016  00000-0  15944-5 0  1488
2 18940 074.0047 313.4856 0008190 332.0824 138.7592 12.50851326169684
0 COSMOS 1927
1 18940U 88016D   13296.20309714  .00000002  00000-0  11772-3 0  1492
2 18940 074.0046 310.2819 0008236 328.6395 160.0951 12.50851168169986
